{
  "type": "FeatureCollection",
  "features": [
    {
      "type": "Feature",
      "properties": {
        "norad_id": 66334,
        "name": "STARLINK-35407",
        "group": "last-30-days",
        "lat": 0.6665137677511715,
        "lon": -138.9633303144835,
        "alt_km": 414.2576892547895,
        "timestamp": "2025-12-02T23:34:14.289255+00:00",
        "meta_object_name": "STARLINK-35407",
        "meta_object_id": "2025-253R",
        "meta_epoch": "2025-12-02T05:47:54.704832",
        "meta_mean_motion": 15.50606846,
        "meta_eccentricity": 0.000182,
        "meta_inclination": 43.0002,
        "meta_ra_of_asc_node": 46.0853,
        "meta_arg_of_pericenter": 277.7851,
        "meta_mean_anomaly": 82.2803,
        "meta_ephemeris_type": 0,
        "meta_classification_type": "U",
        "meta_norad_cat_id": 66334,
        "meta_element_set_no": 999,
        "meta_rev_at_epoch": 530,
        "meta_bstar": 0.0026112,
        "meta_mean_motion_dot": 0.00156096,
        "meta_mean_motion_ddot": 0,
        "tle_line1": "1 66334U 25253R   25336.24160538  .00156096  00000+0  26112-2 0  9997",
        "tle_line2": "2 66334  43.0002  46.0853 0001820 277.7851  82.2803 15.50606846  5309"
      },
      "geometry": {
        "type": "Point",
        "coordinates": [
          -138.9633303144835,
          0.6665137677511715
        ]
      }
    },
    {
      "type": "Feature",
      "properties": {
        "norad_id": 66335,
        "name": "STARLINK-35417",
        "group": "last-30-days",
        "lat": 36.2728737516023,
        "lon": 93.99318576207726,
        "alt_km": 438.9982227096107,
        "timestamp": "2025-12-02T23:34:14.289265+00:00",
        "meta_object_name": "STARLINK-35417",
        "meta_object_id": "2025-253S",
        "meta_epoch": "2025-12-02T12:00:05.998752",
        "meta_mean_motion": 15.40644808,
        "meta_eccentricity": 0.0001277,
        "meta_inclination": 43.0008,
        "meta_ra_of_asc_node": 44.8201,
        "meta_arg_of_pericenter": 271.575,
        "meta_mean_anomaly": 351.8921,
        "meta_ephemeris_type": 0,
        "meta_classification_type": "U",
        "meta_norad_cat_id": 66335,
        "meta_element_set_no": 999,
        "meta_rev_at_epoch": 528,
        "meta_bstar": 0.0012096,
        "meta_mean_motion_dot": 0.00050466,
        "meta_mean_motion_ddot": 0,
        "tle_line1": "1 66335U 25253S   25336.50006943  .00050466  00000+0  12096-2 0  9996",
        "tle_line2": "2 66335  43.0008  44.8201 0001277 271.5750 351.8921 15.40644808  5287"
      },
      "geometry": {
        "type": "Point",
        "coordinates": [
          93.99318576207726,
          36.2728737516023
        ]
      }
    },
    {
      "type": "Feature",
      "properties": {
        "norad_id": 66336,
        "name": "STARLINK-35404",
        "group": "last-30-days",
        "lat": -6.775973708057485,
        "lon": -130.9507367221355,
        "alt_km": 414.4648228502474,
        "timestamp": "2025-12-02T23:34:14.289275+00:00",
        "meta_object_name": "STARLINK-35404",
        "meta_object_id": "2025-253T",
        "meta_epoch": "2025-12-02T05:45:07.240032",
        "meta_mean_motion": 15.50663874,
        "meta_eccentricity": 0.0001575,
        "meta_inclination": 42.9999,
        "meta_ra_of_asc_node": 46.0686,
        "meta_arg_of_pericenter": 253.9948,
        "meta_mean_anomaly": 106.0739,
        "meta_ephemeris_type": 0,
        "meta_classification_type": "U",
        "meta_norad_cat_id": 66336,
        "meta_element_set_no": 999,
        "meta_rev_at_epoch": 530,
        "meta_bstar": 0.0021834,
        "meta_mean_motion_dot": 0.00130295,
        "meta_mean_motion_ddot": 0,
        "tle_line1": "1 66336U 25253T   25336.23966713  .00130295  00000+0  21834-2 0  9996",
        "tle_line2": "2 66336  42.9999  46.0686 0001575 253.9948 106.0739 15.50663874  5305"
      },
      "geometry": {
        "type": "Point",
        "coordinates": [
          -130.9507367221355,
          -6.775973708057485
        ]
      }
    },
    {
      "type": "Feature",
      "properties": {
        "norad_id": 66337,
        "name": "STARLINK-34783",
        "group": "last-30-days",
        "lat": 42.785244204445334,
        "lon": 125.29226105631943,
        "alt_km": 438.09071815288917,
        "timestamp": "2025-12-02T23:34:14.289285+00:00",
        "meta_object_name": "STARLINK-34783",
        "meta_object_id": "2025-253U",
        "meta_epoch": "2025-12-02T12:00:05.998752",
        "meta_mean_motion": 15.40612881,
        "meta_eccentricity": 0.0001185,
        "meta_inclination": 43.0007,
        "meta_ra_of_asc_node": 44.7603,
        "meta_arg_of_pericenter": 270.9097,
        "meta_mean_anomaly": 17.4567,
        "meta_ephemeris_type": 0,
        "meta_classification_type": "U",
        "meta_norad_cat_id": 66337,
        "meta_element_set_no": 999,
        "meta_rev_at_epoch": 533,
        "meta_bstar": 0.0017637,
        "meta_mean_motion_dot": 0.00073872,
        "meta_mean_motion_ddot": 0,
        "tle_line1": "1 66337U 25253U   25336.50006943  .00073872  00000+0  17637-2 0  9990",
        "tle_line2": "2 66337  43.0007  44.7603 0001185 270.9097  17.4567 15.40612881  5331"
      },
      "geometry": {
        "type": "Point",
        "coordinates": [
          125.29226105631943,
          42.785244204445334
        ]
      }
    },
    {
      "type": "Feature",
      "properties": {
        "norad_id": 66338,
        "name": "STARLINK-35477",
        "group": "last-30-days",
        "lat": 30.298169659224634,
        "lon": 80.90411032522668,
        "alt_km": 439.65345622201676,
        "timestamp": "2025-12-02T23:34:14.289296+00:00",
        "meta_object_name": "STARLINK-35477",
        "meta_object_id": "2025-253V",
        "meta_epoch": "2025-12-02T12:00:05.998752",
        "meta_mean_motion": 15.40639376,
        "meta_eccentricity": 6.62e-05,
        "meta_inclination": 43.0005,
        "meta_ra_of_asc_node": 44.8511,
        "meta_arg_of_pericenter": 254.3783,
        "meta_mean_anomaly": 356.6465,
        "meta_ephemeris_type": 0,
        "meta_classification_type": "U",
        "meta_norad_cat_id": 66338,
        "meta_element_set_no": 999,
        "meta_rev_at_epoch": 538,
        "meta_bstar": 0.0011431,
        "meta_mean_motion_dot": 0.00047647,
        "meta_mean_motion_ddot": 0,
        "tle_line1": "1 66338U 25253V   25336.50006943  .00047647  00000+0  11431-2 0  9998",
        "tle_line2": "2 66338  43.0005  44.8511 0000662 254.3783 356.6465 15.40639376  5384"
      },
      "geometry": {
        "type": "Point",
        "coordinates": [
          80.90411032522668,
          30.298169659224634
        ]
      }
    },
    {
      "type": "Feature",
      "properties": {
        "norad_id": 66339,
        "name": "STARLINK-35443",
        "group": "last-30-days",
        "lat": -6.849438649089673,
        "lon": -130.8672608199434,
        "alt_km": 432.0283566071503,
        "timestamp": "2025-12-02T23:34:14.289307+00:00",
        "meta_object_name": "STARLINK-35443",
        "meta_object_id": "2025-253W",
        "meta_epoch": "2025-12-02T12:00:05.998752",
        "meta_mean_motion": 15.47063659,
        "meta_eccentricity": 0.0001398,
        "meta_inclination": 43.0005,
        "meta_ra_of_asc_node": 44.5274,
        "meta_arg_of_pericenter": 274.1341,
        "meta_mean_anomaly": 109.8171,
        "meta_ephemeris_type": 0,
        "meta_classification_type": "U",
        "meta_norad_cat_id": 66339,
        "meta_element_set_no": 999,
        "meta_rev_at_epoch": 533,
        "meta_bstar": -0.043461,
        "meta_mean_motion_dot": -0.02009422,
        "meta_mean_motion_ddot": 0,
        "tle_line1": "1 66339U 25253W   25336.50006943 -.02009422  00000+0 -43461-1 0  9999",
        "tle_line2": "2 66339  43.0005  44.5274 0001398 274.1341 109.8171 15.47063659  5334"
      },
      "geometry": {
        "type": "Point",
        "coordinates": [
          -130.8672608199434,
          -6.849438649089673
        ]
      }
    },
    {
      "type": "Feature",
      "properties": {
        "norad_id": 66340,
        "name": "STARLINK-35218",
        "group": "last-30-days",
        "lat": -8.054389948126229,
        "lon": -129.54640738334044,
        "alt_km": 414.6485321830505,
        "timestamp": "2025-12-02T23:34:14.289317+00:00",
        "meta_object_name": "STARLINK-35218",
        "meta_object_id": "2025-253X",
        "meta_epoch": "2025-12-02T05:44:37.704192",
        "meta_mean_motion": 15.50658934,
        "meta_eccentricity": 0.0001723,
        "meta_inclination": 43.0002,
        "meta_ra_of_asc_node": 46.0659,
        "meta_arg_of_pericenter": 259.1035,
        "meta_mean_anomaly": 100.9632,
        "meta_ephemeris_type": 0,
        "meta_classification_type": "U",
        "meta_norad_cat_id": 66340,
        "meta_element_set_no": 999,
        "meta_rev_at_epoch": 530,
        "meta_bstar": 0.0021881,
        "meta_mean_motion_dot": 0.00130561,
        "meta_mean_motion_ddot": 0,
        "tle_line1": "1 66340U 25253X   25336.23932528  .00130561  00000+0  21881-2 0  9996",
        "tle_line2": "2 66340  43.0002  46.0659 0001723 259.1035 100.9632 15.50658934  5303"
      },
      "geometry": {
        "type": "Point",
        "coordinates": [
          -129.54640738334044,
          -8.054389948126229
        ]
      }
    }
  ]
}